start=new Date('2022-02-12T00:00:00.000Z').valueOf();
sats=[{"LAUNCH_DATE":"2020-10-24","TLE_LINE1":"1 46779U 20074AS  22042.54406923  .00002176  00000-0  16481-3 0  9998","CLASSIFICATION_TYPE":"U","NORAD_CAT_ID":"46779","RCS_SIZE":"LARGE","EPHEMERIS_TYPE":"0","OBJECT_NAME":"STARLINK-1798","PERIAPSIS":"546.245","ECCENTRICITY":"0.00012930","EPOCH":"2022-02-11T13:03:27.581472","MEAN_ANOMALY":"284.1322","MEAN_MOTION":"15.06423815","REF_FRAME":"TEME","APOAPSIS":"548.036","FILE":"3297735","OBJECT_ID":"2020-074AS","OBJECT_TYPE":"PAYLOAD","INCLINATION":"53.0546","MEAN_MOTION_DDOT":"0.0000000000000","SITE":"AFETR","MEAN_MOTION_DOT":"0.00002176","TLE_LINE2":"2 46779  53.0546 147.6716 0001293  75.9811 284.1322 15.06423815 72664","CENTER_NAME":"EARTH","SEMIMAJOR_AXIS":"6925.276","ARG_OF_PERICENTER":"75.9811","TIME_SYSTEM":"UTC","BSTAR":"0.00016481000000","REV_AT_EPOCH":"7266","COUNTRY_CODE":"US","DECAY_DATE":null,"PERIOD":"95.591","RA_OF_ASC_NODE":"147.6716","GP_ID":"195752995","ELEMENT_SET_NO":"999","MEAN_ELEMENT_THEORY":"SGP4"},{"MEAN_ANOMALY":"293.4928","EPOCH":"2022-02-11T12:47:32.835552","PERIAPSIS":"546.071","OBJECT_NAME":"STARLINK-1832","ECCENTRICITY":"0.00015750","NORAD_CAT_ID":"46780","CLASSIFICATION_TYPE":"U","EPHEMERIS_TYPE":"0","RCS_SIZE":"LARGE","LAUNCH_DATE":"2020-10-24","TLE_LINE1":"1 46780U 20074AT  22042.53301893 -.00000519  00000-0 -15904-4 0  9990","OBJECT_TYPE":"PAYLOAD","OBJECT_ID":"2020-074AT","FILE":"3297735","APOAPSIS":"548.252","REF_FRAME":"TEME","MEAN_MOTION":"15.06417027","TIME_SYSTEM":"UTC","ARG_OF_PERICENTER":"66.6226","CENTER_NAME":"EARTH","SEMIMAJOR_AXIS":"6925.296","MEAN_MOTION_DOT":"-0.00000519","SITE":"AFETR","TLE_LINE2":"2 46780  53.0554 147.7289 0001575  66.6226 293.4928 15.06417027 72664","INCLINATION":"53.0554","MEAN_MOTION_DDOT":"0.0000000000000","ELEMENT_SET_NO":"999","GP_ID":"195753246","MEAN_ELEMENT_THEORY":"SGP4","RA_OF_ASC_NODE":"147.7289","PERIOD":"95.591","DECAY_DATE":null,"REV_AT_EPOCH":"7266","COUNTRY_CODE":"US","BSTAR":"-0.00001590400000"},{"REV_AT_EPOCH":"7253","COUNTRY_CODE":"US","BSTAR":"0.00015148000000","GP_ID":"195751994","ELEMENT_SET_NO":"999","MEAN_ELEMENT_THEORY":"SGP4","DECAY_DATE":null,"PERIOD":"95.591","RA_OF_ASC_NODE":"157.6500","SITE":"AFETR","MEAN_MOTION_DOT":"0.00001976","TLE_LINE2":"2 46781  53.0547 157.6500 0001437  69.8557 290.2586 15.06413589 72532","INCLINATION":"53.0547","MEAN_MOTION_DDOT":"0.0000000000000","ARG_OF_PERICENTER":"69.8557","TIME_SYSTEM":"UTC","CENTER_NAME":"EARTH","SEMIMAJOR_AXIS":"6925.307","REF_FRAME":"TEME","MEAN_MOTION":"15.06413589","FILE":"3297735","OBJECT_TYPE":"PAYLOAD","OBJECT_ID":"2020-074AU","APOAPSIS":"548.167","CLASSIFICATION_TYPE":"U","NORAD_CAT_ID":"46781","RCS_SIZE":"LARGE","EPHEMERIS_TYPE":"0","LAUNCH_DATE":"2020-10-24","TLE_LINE1":"1 46781U 20074AU  22042.55051991  .00001976  00000-0  15148-3 0  9999","OBJECT_NAME":"STARLINK-1834","PERIAPSIS":"546.177","ECCENTRICITY":"0.00014370","MEAN_ANOMALY":"290.2586","EPOCH":"2022-02-11T13:12:44.920224"},{"FILE":"3297838","OBJECT_ID":"2020-074AV","OBJECT_TYPE":"PAYLOAD","APOAPSIS":"548.327","REF_FRAME":"TEME","MEAN_MOTION":"15.06424338","ECCENTRICITY":"0.00017160","PERIAPSIS":"545.951","OBJECT_NAME":"STARLINK-1835","MEAN_ANOMALY":"306.6264","EPOCH":"2022-02-11T18:53:46.736736","CLASSIFICATION_TYPE":"U","NORAD_CAT_ID":"46782","RCS_SIZE":"LARGE","EPHEMERIS_TYPE":"0","LAUNCH_DATE":"2020-10-24","TLE_LINE1":"1 46782U 20074AV  22042.78734649  .00007634  00000-0  53046-3 0  9999","GP_ID":"195758399","ELEMENT_SET_NO":"999","MEAN_ELEMENT_THEORY":"SGP4","DECAY_DATE":null,"PERIOD":"95.591","RA_OF_ASC_NODE":"146.5727","COUNTRY_CODE":"US","REV_AT_EPOCH":"7242","BSTAR":"0.00053046000000","ARG_OF_PERICENTER":"53.4882","TIME_SYSTEM":"UTC","SEMIMAJOR_AXIS":"6925.274","CENTER_NAME":"EARTH","SITE":"AFETR","MEAN_MOTION_DOT":"0.00007634","TLE_LINE2":"2 46782  53.0533 146.5727 0001716  53.4882 306.6264 15.06424338 72423","INCLINATION":"53.0533","MEAN_MOTION_DDOT":"0.0000000000000"},{"OBJECT_NAME":"STARLINK-1851","PERIAPSIS":"546.240","ECCENTRICITY":"0.00012820","MEAN_ANOMALY":"286.1073","EPOCH":"2022-02-11T12:52:50.959488","LAUNCH_DATE":"2020-10-24","TLE_LINE1":"1 46783U 20074AW  22042.53670092  .00007115  00000-0  49571-3 0  9996","CLASSIFICATION_TYPE":"U","NORAD_CAT_ID":"46783","RCS_SIZE":"LARGE","EPHEMERIS_TYPE":"0","APOAPSIS":"548.015","FILE":"3297735","OBJECT_ID":"2020-074AW","OBJECT_TYPE":"PAYLOAD","MEAN_MOTION":"15.06428130","REF_FRAME":"TEME","CENTER_NAME":"EARTH","SEMIMAJOR_AXIS":"6925.262","ARG_OF_PERICENTER":"74.0057","TIME_SYSTEM":"UTC","INCLINATION":"53.0532","MEAN_MOTION_DDOT":"0.0000000000000","SITE":"AFETR","MEAN_MOTION_DOT":"0.00007115","TLE_LINE2":"2 46783  53.0532 147.7124 0001282  74.0057 286.1073 15.06428130 72668","PERIOD":"95.590","DECAY_DATE":null,"RA_OF_ASC_NODE":"147.7124","GP_ID":"195753496","ELEMENT_SET_NO":"999","MEAN_ELEMENT_THEORY":"SGP4","BSTAR":"0.00049571000000","REV_AT_EPOCH":"7266","COUNTRY_CODE":"US"},{"MEAN_ELEMENT_THEORY":"SGP4","ELEMENT_SET_NO":"999","GP_ID":"195753747","RA_OF_ASC_NODE":"147.6952","PERIOD":"95.590","DECAY_DATE":null,"COUNTRY_CODE":"US","REV_AT_EPOCH":"7266","BSTAR":"0.00077654000000","TIME_SYSTEM":"UTC","ARG_OF_PERICENTER":"84.7964","CENTER_NAME":"EARTH","SEMIMAJOR_AXIS":"6925.259","TLE_LINE2":"2 46784  53.0553 147.6952 0001184  84.7964 275.3160 15.06429140 72665","MEAN_MOTION_DOT":"0.00011313","SITE":"AFETR","MEAN_MOTION_DDOT":"0.0000000000000","INCLINATION":"53.0553","OBJECT_ID":"2020-074AX","OBJECT_TYPE":"PAYLOAD","FILE":"3297735","APOAPSIS":"547.944","REF_FRAME":"TEME","MEAN_MOTION":"15.06429140","MEAN_ANOMALY":"275.3160","EPOCH":"2022-02-11T12:58:09.512832","OBJECT_NAME":"STARLINK-1882","PERIAPSIS":"546.304","ECCENTRICITY":"0.00011840","RCS_SIZE":"LARGE","EPHEMERIS_TYPE":"0","NORAD_CAT_ID":"46784","CLASSIFICATION_TYPE":"U","LAUNCH_DATE":"2020-10-24","TLE_LINE1":"1 46784U 20074AX  22042.54038788  .00011313  00000-0  77654-3 0  9996"},{"ARG_OF_PERICENTER":"66.7215","TIME_SYSTEM":"UTC","SEMIMAJOR_AXIS":"6925.270","CENTER_NAME":"EARTH","SITE":"AFETR","MEAN_MOTION_DOT":"0.00013409","TLE_LINE2":"2 46785  53.0524 146.8714 0001532  66.7215 293.3936 15.06425533 72378","INCLINATION":"53.0524","MEAN_MOTION_DDOT":"0.0000000000000","GP_ID":"195760638","ELEMENT_SET_NO":"999","MEAN_ELEMENT_THEORY":"SGP4","PERIOD":"95.591","DECAY_DATE":null,"RA_OF_ASC_NODE":"146.8714","REV_AT_EPOCH":"7237","COUNTRY_CODE":"US","BSTAR":"0.00091673000000","PERIAPSIS":"546.074","ECCENTRICITY":"0.00015320","OBJECT_NAME":"STARLINK-1883","MEAN_ANOMALY":"293.3936","EPOCH":"2022-02-11T17:23:32.574048","CLASSIFICATION_TYPE":"U","NORAD_CAT_ID":"46785","RCS_SIZE":"LARGE","EPHEMERIS_TYPE":"0","TLE_LINE1":"1 46785U 20074AY  22042.72468257  .00013409  00000-0  91673-3 0  9990","LAUNCH_DATE":"2020-10-24","FILE":"3297925","OBJECT_ID":"2020-074AY","OBJECT_TYPE":"PAYLOAD","APOAPSIS":"548.196","REF_FRAME":"TEME","MEAN_MOTION":"15.06425533"},{"ECCENTRICITY":"0.00005350","PERIAPSIS":"546.749","OBJECT_NAME":"STARLINK-1893","MEAN_ANOMALY":"256.4952","EPOCH":"2022-02-11T12:07:44.742144","CLASSIFICATION_TYPE":"U","NORAD_CAT_ID":"46786","RCS_SIZE":"LARGE","EPHEMERIS_TYPE":"0","LAUNCH_DATE":"2020-10-24","TLE_LINE1":"1 46786U 20074AZ  22042.50537896  .00011685  00000-0  80134-3 0  9997","FILE":"3297735","OBJECT_ID":"2020-074AZ","OBJECT_TYPE":"PAYLOAD","APOAPSIS":"547.490","REF_FRAME":"TEME","MEAN_MOTION":"15.06430625","ARG_OF_PERICENTER":"103.6097","TIME_SYSTEM":"UTC","SEMIMAJOR_AXIS":"6925.255","CENTER_NAME":"EARTH","SITE":"AFETR","MEAN_MOTION_DOT":"0.00011685","TLE_LINE2":"2 46786  53.0540 127.8440 0000535 103.6097 256.4952 15.06430625 72942","INCLINATION":"53.0540","MEAN_MOTION_DDOT":"0.0000000000000","GP_ID":"195752745","ELEMENT_SET_NO":"999","MEAN_ELEMENT_THEORY":"SGP4","DECAY_DATE":null,"PERIOD":"95.590","RA_OF_ASC_NODE":"127.8440","COUNTRY_CODE":"US","REV_AT_EPOCH":"7294","BSTAR":"0.00080134000000"},{"RCS_SIZE":"LARGE","EPHEMERIS_TYPE":"0","NORAD_CAT_ID":"46787","CLASSIFICATION_TYPE":"U","TLE_LINE1":"1 46787U 20074BA  22042.49800732  .00015107  00000-0  10302-2 0  9990","LAUNCH_DATE":"2020-10-24","MEAN_ANOMALY":"267.3028","EPOCH":"2022-02-11T11:57:07.832448","OBJECT_NAME":"STARLINK-1899","PERIAPSIS":"546.847","ECCENTRICITY":"0.00004150","REF_FRAME":"TEME","MEAN_MOTION":"15.06425827","OBJECT_ID":"2020-074BA","OBJECT_TYPE":"PAYLOAD","FILE":"3297735","APOAPSIS":"547.422","TLE_LINE2":"2 46787  53.0531 127.8719 0000415  92.8008 267.3028 15.06425827 72943","MEAN_MOTION_DOT":"0.00015107","SITE":"AFETR","MEAN_MOTION_DDOT":"0.0000000000000","INCLINATION":"53.0531","TIME_SYSTEM":"UTC","ARG_OF_PERICENTER":"92.8008","SEMIMAJOR_AXIS":"6925.269","CENTER_NAME":"EARTH","COUNTRY_CODE":"US","REV_AT_EPOCH":"7294","BSTAR":"0.00103020000000","MEAN_ELEMENT_THEORY":"SGP4","ELEMENT_SET_NO":"999","GP_ID":"195752996","RA_OF_ASC_NODE":"127.8719","PERIOD":"95.591","DECAY_DATE":null},{"MEAN_MOTION_DOT":"0.00016295","SITE":"AFETR","TLE_LINE2":"2 46788  53.0532 127.6261 0001511  55.1183 304.9948 15.06427615 72956","INCLINATION":"53.0532","MEAN_MOTION_DDOT":"0.0000000000000","TIME_SYSTEM":"UTC","ARG_OF_PERICENTER":"55.1183","CENTER_NAME":"EARTH","SEMIMAJOR_AXIS":"6925.264","REV_AT_EPOCH":"7295","COUNTRY_CODE":"US","BSTAR":"0.00110950000000","ELEMENT_SET_NO":"999","GP_ID":"195753247","MEAN_ELEMENT_THEORY":"SGP4","RA_OF_ASC_NODE":"127.6261","DECAY_DATE":null,"PERIOD":"95.590","NORAD_CAT_ID":"46788","CLASSIFICATION_TYPE":"U","RCS_SIZE":"LARGE","EPHEMERIS_TYPE":"0","LAUNCH_DATE":"2020-10-24","TLE_LINE1":"1 46788U 20074BB  22042.55698193  .00016295  00000-0  11095-2 0  9993","MEAN_ANOMALY":"304.9948","EPOCH":"2022-02-11T13:22:03.238752","PERIAPSIS":"546.083","OBJECT_NAME":"STARLINK-1929","ECCENTRICITY":"0.00015110","REF_FRAME":"TEME","MEAN_MOTION":"15.06427615","OBJECT_TYPE":"PAYLOAD","OBJECT_ID":"2020-074BB","FILE":"3297735","APOAPSIS":"548.175"}];
